[{"OBJECT_NAME":"COSMOS 2504","OBJECT_ID":"2015-020D","EPOCH":"2026-03-09T23:13:36.834816","MEAN_MOTION":13.6133253,"ECCENTRICITY":0.06077174,"INCLINATION":82.5183,"RA_OF_ASC_NODE":307.9923,"ARG_OF_PERICENTER":183.8961,"MEAN_ANOMALY":175.7346,"EPHEMERIS_TYPE":0,"CLASSIFICATION_TYPE":"U","NORAD_CAT_ID":40555,"ELEMENT_SET_NO":999,"REV_AT_EPOCH":53669,"BSTAR":0.00011649917,"MEAN_MOTION_DOT":3.31e-6,"MEAN_MOTION_DDOT":0},{"OBJECT_NAME":"SL-16 DEB","OBJECT_ID":"1992-093LZ","EPOCH":"2026-03-09T22:20:58.967520","MEAN_MOTION":14.16008595,"ECCENTRICITY":0.0007591,"INCLINATION":71.0235,"RA_OF_ASC_NODE":3.659,"ARG_OF_PERICENTER":280.8623,"MEAN_ANOMALY":79.1646,"EPHEMERIS_TYPE":0,"CLASSIFICATION_TYPE":"U","NORAD_CAT_ID":54753,"ELEMENT_SET_NO":999,"REV_AT_EPOCH":1275,"BSTAR":0.0015707074,"MEAN_MOTION_DOT":3.054e-5,"MEAN_MOTION_DDOT":0}]
